SCD 1                   
1 22490U 93009B   26187.09066529  .00000449  00000+0  71913-4 0  9990
2 22490  24.9695  90.8561 0041744 338.3535 172.5130 14.46126471763857
TECHSAT 1B (GO-32)      
1 25397U 98043D   26187.45143336  .00000057  00000+0  44794-4 0  9996
2 25397  99.0077 180.6966 0001913 128.7937 231.3412 14.24432198454071
SCD 2                   
1 25504U 98060A   26187.42526711  .00000374  00000+0  53669-4 0  9997
2 25504  24.9963 313.5211 0016647 327.2004  82.7878 14.45532989463114
DLR-TUBSAT              
1 25757U 99029B   26186.96265966  .00000108  00000+0  38332-4 0  9998
2 25757  98.6703 183.0851 0013093 295.3315  64.6523 14.52431833435979
TERRA                   
1 25994U 99068A   26187.34234573  .00000406  00000+0  91496-4 0  9998
2 25994  97.9445 236.1282 0002979 140.4689 348.3967 14.61118973412404
MAROC-TUBSAT            
1 27004U 01056D   26187.35487337 -.00000026  00000+0  22783-4 0  9993
2 27004  99.8093   4.5765 0020631  93.8503 344.2913 13.70263191228810
AQUA                    
1 27424U 02022A   26187.37110089  .00000835  00000+0  17564-3 0  9999
2 27424  98.4288 157.0386 0000716  94.8885  67.0639 14.62188364286073
SHIYAN-1 (SY-1)         
1 28220U 04012A   26187.16577939  .00015291  00000+0  46274-3 0  9995
2 28220  97.8679 266.4731 0004202 317.7476  42.3441 15.34287357214004
AURA                    
1 28376U 04026A   26187.36331708  .00000846  00000+0  18083-3 0  9993
2 28376  98.3425 143.9765 0001208  89.2963 270.8376 14.61359131169016
IRS-P5 (CARTOSAT-1)     
1 28649U 05017A   26187.06970705  .00001666  00000+0  17342-3 0  9998
2 28649  97.5303 209.2774 0001896  58.4130 301.7274 14.91101556146631
SINAH 1                 
1 28893U 05043D   26187.32575968  .00000387  00000+0  82815-4 0  9996
2 28893  98.2884 321.7628 0013777 211.9031 148.1338 14.64171526103326
RESURS-DK 1             
1 29228U 06021A   26187.33703282  .00002170  00000+0  12767-3 0  9999
2 29228  69.9332 289.9803 0006719 280.9449  79.0961 15.13298415105473
ARIRANG-2 (KOMPSAT-2)   
1 29268U 06031A   26187.63171146  .00000380  00000+0  79784-4 0  9999
2 29268  97.8314  11.1376 0015004  17.5178  72.1480 14.64672569 64326
LAPAN-TUBSAT            
1 29709U 07001A   26187.58024777  .00000808  00000+0  99026-4 0  9994
2 29709  98.1351 187.2424 0013367 118.9031 241.3527 14.85972793 54038
HAIYANG-1B              
1 31113U 07010A   26187.37283394  .00000098  00000+0  52903-4 0  9999
2 31113  98.3506 168.4748 0014263 140.2493 219.9739 14.31031778  3388
COSMO-SKYMED 1          
1 31598U 07023A   26187.58399970  .00001859  00000+0  16599-3 0  9997
2 31598  97.8850  19.6039 0001030  87.2229 272.9110 14.97194090 32693
TERRASAR-X              
1 31698U 07026A   26187.49113296  .00000461  00000+0  25162-4 0  9991
2 31698  97.4461 194.9230 0001884  89.5305 270.6146 15.19153904 56150
WORLDVIEW-1 (WV-1)      
1 32060U 07041A   26187.32853865  .00006071  00000+0  24990-3 0  9997
2 32060  97.3893 306.8017 0000931 268.7734  91.3397 15.24491743 45794
YAOGAN-3                
1 32289U 07055A   26187.59176354  .00002845  00000+0  29440-3 0  9995
2 32289  97.8146 217.2778 0001747  76.2008 283.9404 14.90864183  8762
COSMO-SKYMED 2          
1 32376U 07059A   26187.60405833  .00000369  00000+0  52844-4 0  9999
2 32376  97.8891  10.9207 0001348  91.8191 268.3176 14.82161798  4889
RADARSAT-2              
1 32382U 07061A   26187.62965661  .00000229  00000+0  10589-3 0  9995
2 32382  98.5780 194.2844 0001305  84.3407 275.7924 14.29982475968734
