OBJECT_NAME,OBJECT_ID,EPOCH,MEAN_MOTION,ECCENTRICITY,INCLINATION,RA_OF_ASC_NODE,ARG_OF_PERICENTER,MEAN_ANOMALY,EPHEMERIS_TYPE,CLASSIFICATION_TYPE,NORAD_CAT_ID,ELEMENT_SET_NO,REV_AT_EPOCH,BSTAR,MEAN_MOTION_DOT,MEAN_MOTION_DDOT
SCD 1,1993-009B,2026-07-06T02:10:33.481056,14.46126471,.00417443,24.9695,90.8561,338.3535,172.5130,0,U,22490,999,76385,.71913407E-4,.449E-5,0
TECHSAT 1B (GO-32),1998-043D,2026-07-06T10:50:03.842304,14.24432198,.00019138,99.0077,180.6966,128.7937,231.3412,0,U,25397,999,45407,.4479384E-4,.57E-6,0
SCD 2,1998-060A,2026-07-06T10:12:23.078304,14.45532989,.00166473,24.9963,313.5211,327.2004,82.7878,0,U,25504,999,46311,.53669171E-4,.374E-5,0
DLR-TUBSAT,1999-029B,2026-07-05T23:06:13.794624,14.52431833,.00130931,98.6703,183.0851,295.3315,64.6523,0,U,25757,999,43597,.38331662E-4,.108E-5,0
TERRA,1999-068A,2026-07-06T08:12:58.671072,14.61118973,.00029798,97.9445,236.1282,140.4689,348.3967,0,U,25994,999,41240,.91496407E-4,.406E-5,0
MAROC-TUBSAT,2001-056D,2026-07-06T08:31:01.059168,13.70263191,.00206316,99.8093,4.5765,93.8503,344.2913,0,U,27004,999,22881,.22783088E-4,-.26E-6,0
AQUA,2002-022A,2026-07-06T08:54:23.116896,14.62188364,.00007161,98.4288,157.0386,94.8885,67.0639,0,U,27424,999,28607,.1756413E-3,.835E-5,0
SHIYAN-1 (SY-1),2004-012A,2026-07-06T03:58:43.339296,15.34287357,.00042023,97.8679,266.4731,317.7476,42.3441,0,U,28220,999,21400,.46274266E-3,.15291E-3,0
AURA,2004-026A,2026-07-06T08:43:10.595712,14.61359131,.00012082,98.3425,143.9765,89.2963,270.8376,0,U,28376,999,16901,.18082839E-3,.846E-5,0
IRS-P5 (CARTOSAT-1),2005-017A,2026-07-06T01:40:22.689120,14.91101556,.0001896,97.5303,209.2774,58.4130,301.7274,0,U,28649,999,14663,.17342421E-3,.1666E-4,0
SINAH 1,2005-043D,2026-07-06T07:49:05.636352,14.64171526,.00137779,98.2884,321.7628,211.9031,148.1338,0,U,28893,999,10332,.82815012E-4,.387E-5,0
RESURS-DK 1,2006-021A,2026-07-06T08:05:19.635648,15.13298415,.00067198,69.9332,289.9803,280.9449,79.0961,0,U,29228,999,10547,.12767452E-3,.217E-4,0
ARIRANG-2 (KOMPSAT-2),2006-031A,2026-07-06T15:09:39.870144,14.64672569,.00150048,97.8314,11.1376,17.5178,72.1480,0,U,29268,999,6432,.79783539E-4,.38E-5,0
LAPAN-TUBSAT,2007-001A,2026-07-06T13:55:33.407328,14.85972793,.00133677,98.1351,187.2424,118.9031,241.3527,0,U,29709,999,5403,.99026371E-4,.808E-5,0
HAIYANG-1B,2007-010A,2026-07-06T08:56:52.852416,14.31031778,.00142636,98.3506,168.4748,140.2493,219.9739,0,U,31113,999,338,.52903424E-4,.98E-6,0
COSMO-SKYMED 1,2007-023A,2026-07-06T14:00:57.574080,14.97194090,.000103,97.8850,19.6039,87.2229,272.9110,0,U,31598,999,3269,.16598926E-3,.1859E-4,0
TERRASAR-X,2007-026A,2026-07-06T11:47:13.887744,15.19153904,.00018846,97.4461,194.9230,89.5305,270.6146,0,U,31698,999,5615,.25161878E-4,.461E-5,0
WORLDVIEW-1 (WV-1),2007-041A,2026-07-06T07:53:05.739360,15.24491743,.00009312,97.3893,306.8017,268.7734,91.3397,0,U,32060,999,4579,.24989751E-3,.6071E-4,0
YAOGAN-3,2007-055A,2026-07-06T14:12:08.369856,14.90864183,.00017471,97.8146,217.2778,76.2008,283.9404,0,U,32289,999,876,.29439702E-3,.2845E-4,0
COSMO-SKYMED 2,2007-059A,2026-07-06T14:29:50.639712,14.82161798,.00013484,97.8891,10.9207,91.8191,268.3176,0,U,32376,999,488,.52843712E-4,.369E-5,0
RADARSAT-2,2007-061A,2026-07-06T15:06:42.331104,14.29982475,.00013052,98.5780,194.2844,84.3407,275.7924,0,U,32382,999,96873,.10589447E-3,.229E-5,0
